{
  "type": "Feature",
  "properties": {
    "source_url": "https://amarysia.gr/wp-content/uploads/2022/12/EKTHESH-MELETHS-ANABATMISHS_NAT.pdf",
    "source_ref": "Mati_PEON_study",
    "source_pdf_pages": [
      6,
      7
    ],
    "source_crs": "EPSG:2100",
    "kaek": "051015309025",
    "purpose": "QA supporting footprint only; do not insert derived document coordinates as Google geocoding results"
  },
  "geometry": {
    "type": "Polygon",
    "coordinates": [
      [
        [
          23.98882595703992,
          38.05136899707957
        ],
        [
          23.988882944260308,
          38.05137963755737
        ],
        [
          23.989297697653083,
          38.05145772668127
        ],
        [
          23.990549486455116,
          38.051685947313835
        ],
        [
          23.991930645468177,
          38.051943004438954
        ],
        [
          23.992044735391026,
          38.051967076322875
        ],
        [
          23.99336492716966,
          38.0522129366042
        ],
        [
          23.994491593764604,
          38.05241983795841
        ],
        [
          23.994752944786324,
          38.05246869914806
        ],
        [
          23.995572333267933,
          38.05262095861206
        ],
        [
          23.99610130734568,
          38.05271993759791
        ],
        [
          23.996872374776178,
          38.05285172738664
        ],
        [
          23.99677357995691,
          38.05226382148527
        ],
        [
          23.996668156552886,
          38.052104652950206
        ],
        [
          23.99664148737492,
          38.052063914450734
        ],
        [
          23.996585869568946,
          38.05198171634462
        ],
        [
          23.99651851322207,
          38.051875904394095
        ],
        [
          23.996440443852574,
          38.05175477036169
        ],
        [
          23.9963940588311,
          38.05167058962915
        ],
        [
          23.996324994808784,
          38.05153611688424
        ],
        [
          23.99627188655184,
          38.051428592801514
        ],
        [
          23.996209546990833,
          38.05130700846551
        ],
        [
          23.996167037932267,
          38.051219312779274
        ],
        [
          23.99612008454099,
          38.05111872866016
        ],
        [
          23.99607301944361,
          38.05097803766291
        ],
        [
          23.996044189170988,
          38.050867990698116
        ],
        [
          23.995826607056546,
          38.05087230930828
        ],
        [
          23.99546017094581,
          38.05087896518384
        ],
        [
          23.99489029199277,
          38.05079917872546
        ],
        [
          23.994409315496686,
          38.05072687436941
        ],
        [
          23.993762507804416,
          38.050610486885276
        ],
        [
          23.99290097477603,
          38.050452984807535
        ],
        [
          23.992570905573473,
          38.050393750468295
        ],
        [
          23.992500014056205,
          38.0503776130962
        ],
        [
          23.992091192083414,
          38.050281149589104
        ],
        [
          23.991374417448153,
          38.05010850449864
        ],
        [
          23.990907130796206,
          38.04999743186591
        ],
        [
          23.990667561505546,
          38.04994009182646
        ],
        [
          23.99062095255218,
          38.049885200300515
        ],
        [
          23.990391328383577,
          38.04960839934317
        ],
        [
          23.9893621628355,
          38.04941444586063
        ],
        [
          23.988822658772868,
          38.05132240071628
        ],
        [
          23.98882595703992,
          38.05136899707957
        ]
      ]
    ]
  }
}
